[{"OBJECT_NAME":"STARLINK-35323","OBJECT_ID":"2025-235P","EPOCH":"2026-03-09T19:25:15.541824","MEAN_MOTION":15.30182085,"ECCENTRICITY":0.00011974,"INCLINATION":53.1599,"RA_OF_ASC_NODE":244.4353,"ARG_OF_PERICENTER":81.9408,"MEAN_ANOMALY":278.1728,"EPHEMERIS_TYPE":0,"CLASSIFICATION_TYPE":"U","NORAD_CAT_ID":66071,"ELEMENT_SET_NO":999,"REV_AT_EPOCH":2294,"BSTAR":0.0013711625,"MEAN_MOTION_DOT":0.00040449,"MEAN_MOTION_DDOT":0},{"OBJECT_NAME":"CZ-4B DEB","OBJECT_ID":"1999-057H","EPOCH":"2026-03-09T17:25:29.363520","MEAN_MOTION":15.25756771,"ECCENTRICITY":0.00339549,"INCLINATION":98.6728,"RA_OF_ASC_NODE":149.1557,"ARG_OF_PERICENTER":175.409,"MEAN_ANOMALY":184.7463,"EPHEMERIS_TYPE":0,"CLASSIFICATION_TYPE":"U","NORAD_CAT_ID":26121,"ELEMENT_SET_NO":999,"REV_AT_EPOCH":41150,"BSTAR":0.00075758105,"MEAN_MOTION_DOT":0.00019602,"MEAN_MOTION_DDOT":0}]
